MOZHAYETS 4 (RS-22)     
1 27939U 03042A   25077.61753567  .00003946  00000+0  63692-3 0  9990
2 27939  98.3194 245.1140 0010492 272.3238 157.0747 14.71959300148492
IRS-P6 (RESOURCESAT-1)  
1 28051U 03046A   25077.55639611  .00000656  00000+0  23512-3 0  9998
2 28051  98.2529 129.8578 0063305 268.3182 199.6693 14.35908630115133
SAUDISAT 2              
1 28371U 04025F   25077.55124941  .00001253  00000+0  29373-3 0  9991
2 28371  98.5202  61.6930 0023652 255.9465 103.9102 14.56197499 99423
COSMOS 2407             
1 28380U 04028A   25077.47122029  .00000138  00000+0  12437-3 0  9994
2 28380  82.9593  52.3026 0040666  87.0158  28.9885 13.76277746 37198
COSMOS 2414             
1 28521U 05002A   25077.40646009  .00000168  00000+0  12764-3 0  9992
2 28521  82.9522  28.3536 0039839 187.1093 172.9511 13.87859438 20594
INMARSAT 4-F1           
1 28628U 05009A   25077.21943252  .00000040  00000+0  00000+0 0  9991
2 28628   4.5852  42.0402 0002582 342.8864  48.1927  1.00271907 73105
HAMSAT (VO-52)          
1 28650U 05017B   25077.55411212  .00014212  00000+0  10327-2 0  9990
2 28650  98.0031  77.7466 0022979 131.8929 228.4260 15.03757261 78144
NOAA 18                 
1 28654U 05018A   25077.45362971  .00000536  00000+0  30751-3 0  9999
2 28654  98.8459 157.8574 0014065   9.9651 350.1798 14.13545622 21923
SJ-7                    
1 28737U 05024A   25077.59298795  .00017521  00000+0  99560-3 0  9990
2 28737  97.7646  92.2785 0019711 160.0342 200.1663 15.12801673 78946
CUBESAT XI-V            
1 28895U 05043F   25077.38492203  .00006265  00000+0  10403-2 0  9994
2 28895  98.2356 220.7838 0014573 206.9875 153.0574 14.70450140 34710
CLOUDSAT                
1 29107U 06016A   25077.53332349  .00004246  00000+0  50708-3 0  9993
2 29107  98.4253  83.9331 0005693  19.5152 340.6277 14.84798294  7007
CALIPSO                 
1 29108U 06016B   25077.58206416  .00004824  00000+0  85365-3 0  9993
2 29108  98.4462  73.1075 0001106  87.7598 272.3733 14.67826291  6188
HINODE (SOLAR-B)        
1 29479U 06041A   25077.59116188  .00002255  00000+0  40426-3 0  9994
2 29479  98.0780  95.1544 0016323 294.5463  65.4040 14.67662646988014
METOP-A                 
1 29499U 06044A   25077.53340479  .00005978  00000+0  71293-3 0  9996
2 29499  98.3300 165.9970 0181730  79.9340 341.9622 14.73514435958294
SHIJIAN-6 02B (SJ-6 02B)
1 29506U 06046B   25077.58749245  .00004675  00000+0  38717-3 0  9993
2 29506  97.7148 105.9187 0002030  83.8738 276.2716 14.99341831  2425
DMSP 5D-3 F17 (USA 191) 
1 29522U 06050A   25077.54559703  .00000535  00000+0  30012-3 0  9991
2 29522  98.7429  88.4650 0008866 277.9892  82.0275 14.14782521947980
LAPAN-TUBSAT            
1 29709U 07001A   25077.53223359  .00001966  00000+0  23628-3 0  9993
2 29709  98.1045  62.5696 0011210 223.9157 136.1167 14.85117539983519
HAIYANG-1B              
1 31113U 07010A   25077.58943591  .00000394  00000+0  16594-3 0  9995
2 31113  98.3119  73.3113 0014740 110.4026 249.8742 14.30847419935475
BEIDOU-2 M1             
1 31115U 07011A   25074.98158312  .00000004  00000+0  00000+0 0  9997
2 31115  51.1131 234.5047 0002183  34.0696 325.8859  1.77349361 68029
CAPE-1                  
1 31130U 07012P   25077.43057616  .00006440  00000+0  12017-2 0  9997
2 31130  98.3892  37.0170 0087811  53.6292 307.2971 14.62840911951661
CBERS 2B                
1 32062U 07042A   25077.49615024  .00000941  00000+0  30382-3 0  9990
2 32062  98.3396  26.6925 0029910 267.4844 206.2524 14.41093470919046
COSMO-SKYMED 2          
1 32376U 07059A   25077.53244191  .00001653  00000+0  21399-3 0  9993
2 32376  97.8919 262.7408 0001328  83.9436 276.1928 14.82185696934508
CARTOSAT-2A             
1 32783U 08021A   25077.56579290  .00002490  00000+0  34589-3 0  9994
2 32783  97.8256 135.2658 0012113 147.9586 212.2364 14.78708952911462
CUTE-1.7+APD II (CO-65) 
1 32785U 08021C   25077.49991870  .00014411  00000+0  10740-2 0  9998
2 32785  97.7791  48.1664 0012618 123.3741 236.8693 15.02943182916665
COMPASS-1               
1 32787U 08021E   25077.46655119  .00075807  00000+0  22138-2 0  9990
2 32787  97.6445  63.9193 0004198   8.4809 351.6503 15.35018424919450
AAUSAT-II               
1 32788U 08021F   25077.52205204  .00211156  00000+0  28766-2 0  9996
2 32788  97.6068  71.0676 0004167 115.9762 244.1922 15.56798686920334
SEEDS II (CO-66)        
1 32791U 08021J   25077.48231737  .00030631  00000+0  16176-2 0  9994
2 32791  97.7232  55.8718 0007114  93.1797 267.0249 15.15436754917971
YUBILEINY (RS-30)       
1 32953U 08025A   25077.58882977  .00000024  00000+0  10008-3 0  9999
2 32953  82.4978 278.8063 0018856 225.2410 134.7136 12.43160243763085
FENGYUN 3A              
1 32958U 08026A   25077.41713745  .00000494  00000+0  25515-3 0  9993
2 32958  98.6399  23.1384 0008922   9.0482 351.0854 14.19392954870747
HUANJING 1A (HJ-1A)     
1 33320U 08041A   25077.58924772  .00004286  00000+0  54168-3 0  9995
2 33320  97.6404  77.5790 0019292 188.6061 171.4825 14.82233336890876
HUANJING 1B (HJ-1B)     
1 33321U 08041B   25077.59639712  .00003073  00000+0  39033-3 0  9991
2 33321  97.6303  81.8731 0035894 236.5679 123.2101 14.81910134890905
SHIJIAN-6 03A (SJ-6 03A)
1 33408U 08053A   25077.55075549  .00014854  00000+0  90617-3 0  9992
2 33408  97.8791  91.0550 0014921 128.1748 232.0827 15.10346508894029
SHIJIAN-6 03B (SJ-6 03B)
1 33409U 08053B   25077.58589243  .00007907  00000+0  60843-3 0  9996
2 33409  97.8722  85.1445 0021692 129.7419 230.5721 15.01778616894302
CHUANGXIN 1-02 (CX-1-02)
1 33434U 08056B   25077.54111140  .00000301  00000+0  13360-3 0  9993
2 33434  98.6554 102.3346 0014992  41.8615 318.3711 14.30006404853490
PRISM (HITOMI)          
1 33493U 09002B   25077.15889275  .00388461  00000+0  33843-2 0  9991
2 33493  98.1513 161.0936 0004898 302.2480  57.8304 15.67804817881095
STARS (KUKAI)           
1 33498U 09002G   25077.39238938  .00012173  00000+0  12447-2 0  9997
2 33498  98.1216   4.0846 0007710 224.2995 135.7605 14.90687160870459
KKS-1 (KISEKI)          
1 33499U 09002H   25077.58102134  .00004954  00000+0  64375-3 0  9993
2 33499  98.1239 348.5303 0007573 336.4664  23.6201 14.81145824868703
NOAA 19                 
1 33591U 09005A   25077.58805849  .00000449  00000+0  26353-3 0  9991
2 33591  99.0064 141.7986 0013029 235.3115 124.6830 14.13312421830122
YAOGAN-6                
1 34839U 09021A   25077.46904322  .00134957  00000+0  77984-3 0  9996
2 34839  97.1992  54.2363 0006563 203.4957 156.6011 15.78216027886190
UK-DMC 2                
1 35683U 09041C   25077.57503230  .00002935  00000+0  44521-3 0  9992
2 35683  97.8167 220.8662 0001063  89.3620 270.7711 14.74834015839382
METEOR-M 1              
1 35865U 09049A   25077.60698094  .00000443  00000+0  21603-3 0  9997
2 35865  98.6763  40.1170 0002296 159.1790 200.9482 14.22975324804457
OCEANSAT-2              
1 35931U 09051A   25077.53419100 -.00000109  00000+0 -48900-4 0  9996
2 35931  98.2332 105.3028 0016802  83.9992 276.3089 13.99571869815597
SWISSCUBE               
1 35932U 09051B   25077.22495000  .00003777  00000+0  78024-3 0  9997
2 35932  98.4391 331.8780 0006653 179.6681 180.4524 14.60967023822549
BEESAT-1                
1 35933U 09051C   25077.57818624  .00003067  00000+0  64299-3 0  9998
2 35933  98.4322 332.7371 0004850 188.8773 171.2341 14.60438339822651
ITUPSAT1                
1 35935U 09051E   25077.59584499  .00002811  00000+0  60531-3 0  9993
2 35935  98.4418 332.3626 0006909 202.3108 157.7791 14.59261317822262
DMSP 5D-3 F18 (USA 210) 
1 35951U 09057A   25077.53681447  .00000720  00000+0  39787-3 0  9998
2 35951  98.8526  55.7867 0012203 104.3281 255.9248 14.14545005795148
PROBA-2                 
1 36037U 09059B   25077.54312547  .00000890  00000+0  21953-3 0  9993
2 36037  98.2364 262.5398 0012159 245.6354 114.3574 14.54466370815284
YAOGAN-7                
1 36110U 09069A   25077.56357826  .00001793  00000+0  25906-3 0  9992
2 36110  98.0681 319.8346 0026247  67.9666 292.4329 14.77227798822344
XIWANG-1 (HOPE-1)       
1 36122U 09072B   25077.47410790 -.00000018  00000+0  68722-4 0  9993
2 36122 100.3394  35.0409 0007288 190.9440 169.1515 13.16420810733040
RADUGA-1M 2             
1 36358U 10002A   25077.52707175 -.00000103  00000+0  00000+0 0  9996
2 36358   2.4280  84.6198 0007579 249.0040 321.4940  0.98966526 45515
COSMOS 2463             
1 36519U 10017A   25077.49565106  .00000112  00000+0  10756-3 0  9995
2 36519  82.9600 224.5064 0035178 315.9406 107.8480 13.71617090745465
CARTOSAT-2B             
1 36795U 10035A   25077.53403370  .00002284  00000+0  31777-3 0  9998
2 36795  97.8195 134.6694 0011164 224.7205 135.3107 14.78728435792512
AISSAT 1                
1 36797U 10035C   25077.57246955  .00006029  00000+0  56508-3 0  9998
2 36797  98.1471 315.3408 0010469 120.0244 240.2015 14.94381022796102
TISAT 1                 
1 36799U 10035E   25077.19360945  .00029185  00000+0  16290-2 0  9995
2 36799  98.0634 346.2151 0005088  49.1639 311.0031 15.13488800798349
YAOGAN-10               
1 36834U 10038A   25077.59871931  .00002161  00000+0  26613-3 0  9990
2 36834  97.9337  99.1729 0001617  97.7844 358.5687 14.83979258789614
SHIJIAN-6 04B (SJ-6 04B)
1 37180U 10051B   25077.53793534  .00004428  00000+0  38067-3 0  9990
2 37180  97.8601  73.9773 0012127  44.1420 316.0767 14.97889649787452
FENGYUN 3B              
1 37214U 10059A   25077.58225966  .00000285  00000+0  17113-3 0  9996
2 37214  99.0246 115.1231 0022703  39.3298  77.1800 14.14695737743005
COSMO-SKYMED 4          
1 37216U 10060A   25077.54522232  .00001492  00000+0  19411-3 0  9996
2 37216  97.8919 262.7631 0001404  86.8154 273.3220 14.82130353777079
O/OREOS (USA 219)       
1 37224U 10062C   25077.24554224  .00007998  00000+0  81720-3 0  9999
2 37224  71.9736  30.8713 0016640 221.4991 138.4915 14.90719056 48623
